{
"type": "FeatureCollection",
"name": "area_of_interest",
"crs": { "type": "name", "properties": { "name": "urn:ogc:def:crs:OGC:1.3:CRS84" } },
"features": [
{ "type": "Feature", "properties": { }, "geometry": { "type": "Polygon", "coordinates": [ [ [ 9.195999920461601, 45.461099882947565 ], [ 9.1860000795854, 45.461099882689062 ], [ 9.185874701834793, 45.461104211782597 ], [ 9.185750530811529, 45.461117168352885 ], [ 9.185628762389948, 45.461138627617089 ], [ 9.185510569308523, 45.461168382903956 ], [ 9.185397089876805, 45.461206147643935 ], [ 9.185289417013719, 45.461251558128758 ], [ 9.185188587722724, 45.461304177013766 ], [ 9.185095573105146, 45.461363497529476 ], [ 9.185011269007843, 45.46142894836175 ], [ 9.184936487395239, 45.461499899153367 ], [ 9.184871948528826, 45.461575666574603 ], [ 9.184818274029457, 45.461655520903733 ], [ 9.184775980889276, 45.461738693054606 ], [ 9.184745476491015, 45.461824381983284 ], [ 9.184727054682639, 45.46191176240275 ], [ 9.184720892945272, 45.461999992731016 ], [ 9.184720757247383, 45.467999992944122 ], [ 9.184726914691726, 45.468088216350282 ], [ 9.184745331729173, 45.468175590317323 ], [ 9.184775831062607, 45.468261273447062 ], [ 9.184818119040688, 45.468344440620015 ], [ 9.184871788483704, 45.468424290941584 ], [ 9.184936322602931, 45.46850005545496 ], [ 9.185011099975782, 45.468571004546639 ], [ 9.185095400528944, 45.468636454973087 ], [ 9.185188412471899, 45.468695776440931 ], [ 9.185289240114058, 45.468748397677437 ], [ 9.185396912490305, 45.468793811932379 ], [ 9.185510392711821, 45.468831581858701 ], [ 9.185628587952145, 45.468861343724811 ], [ 9.185750359972257, 45.468882810917755 ], [ 9.185874536083279, 45.468895776703768 ], [ 9.18599992044118, 45.468900116219423 ], [ 9.196000079605783, 45.468900115960999 ], [ 9.196125463946263, 45.468895776438806 ], [ 9.196249640037879, 45.468882810646285 ], [ 9.196371412036482, 45.468861343447166 ], [ 9.196489607253172, 45.4688315815755 ], [ 9.196603087448965, 45.468793811644531 ], [ 9.196710759797513, 45.468748397386143 ], [ 9.196811587410174, 45.468695776147591 ], [ 9.196904599322067, 45.468636454679384 ], [ 9.196988899842891, 45.468571004254457 ], [ 9.197063677182449, 45.468500055166331 ], [ 9.197128211267772, 45.46842429065866 ], [ 9.197181880676652, 45.468344440345057 ], [ 9.197224168620725, 45.468261273182343 ], [ 9.197254667920653, 45.468175590065151 ], [ 9.197273084925456, 45.468088216112889 ], [ 9.19727924233835, 45.467999992723769 ], [ 9.197279106640432, 45.461999992951398 ], [ 9.197272944934516, 45.461911762640149 ], [ 9.197254523158787, 45.461824382235498 ], [ 9.19722401879403, 45.461738693319361 ], [ 9.197181725687859, 45.461655521178741 ], [ 9.197128051222633, 45.461575666857577 ], [ 9.197063512390123, 45.46149989944206 ], [ 9.196988730810819, 45.461428948653996 ], [ 9.196904426745858, 45.461363497823257 ], [ 9.196811412159345, 45.461304177307184 ], [ 9.196710582897852, 45.461251558420152 ], [ 9.196602910062472, 45.461206147931861 ], [ 9.196489430656483, 45.461168383187221 ], [ 9.196371237598697, 45.461138627894805 ], [ 9.196249469198628, 45.46111716862444 ], [ 9.196125298194779, 45.461104212047651 ], [ 9.195999920461601, 45.461099882947565 ] ] ] } }
]
}
