{
"type": "FeatureCollection",
"name": "pois_all",
"crs": { "type": "name", "properties": { "name": "urn:ogc:def:crs:OGC:1.3:CRS84" } },
"features": [
{ "type": "Feature", "properties": { "id": 0, "osmid": 661556413, "osm_type": "node", "category": "pharmacy", "addr:city": "Milano", "addr:country": "IT", "addr:housenumber": "12", "addr:postcode": "20123", "addr:street": "Via Giuseppe Mazzini", "amenity": "pharmacy", "check_date": "2025-09-04", "dispensing": "yes", "email": "info@farmaciacarloalberto.it", "healthcare": "pharmacy", "name": "Farmacia Carlo Alberto", "opening_hours": "Mo-Fr 08:00-19:00", "operator": "Dr. Raitero Marco Sergio", "phone": "+39 02 86462067", "ref:msal": "2634", "ref:vatin": "IT06660150969", "source": "Ministero della Salute", "website": "http://www.farmaciacarloalberto.it/", "contact:phone": null, "wheelchair": null, "contact:website": null, "contact:whatsapp": null, "start_date": null, "education": null, "wikidata": null, "wikipedia": null }, "geometry": { "type": "Point", "coordinates": [ 9.1882702, 45.4626069 ] } },
{ "type": "Feature", "properties": { "id": 1, "osmid": 715904515, "osm_type": "node", "category": "pharmacy", "addr:city": "Milano", "addr:country": "IT", "addr:housenumber": "21", "addr:postcode": "20121", "addr:street": "Piazza del Duomo", "amenity": "pharmacy", "check_date": null, "dispensing": "yes", "email": null, "healthcare": "pharmacy", "name": "Farmacia Carlo Erba", "opening_hours": null, "operator": "Farmacia Carlo Erba", "phone": null, "ref:msal": "2681", "ref:vatin": "IT02489000998", "source": "Ministero della Salute", "website": null, "contact:phone": null, "wheelchair": null, "contact:website": null, "contact:whatsapp": null, "start_date": null, "education": null, "wikidata": null, "wikipedia": null }, "geometry": { "type": "Point", "coordinates": [ 9.1893457, 45.4648556 ] } },
{ "type": "Feature", "properties": { "id": 2, "osmid": 1038653879, "osm_type": "node", "category": "pharmacy", "addr:city": "Milano", "addr:country": null, "addr:housenumber": "8", "addr:postcode": "20122", "addr:street": "Largo Augusto", "amenity": "pharmacy", "check_date": null, "dispensing": "yes", "email": null, "healthcare": "pharmacy", "name": "Lloyds Farmacia Largo Augusto", "opening_hours": null, "operator": "Lloyds Farmacia Largo Augusto", "phone": null, "ref:msal": "2845", "ref:vatin": "IT03653681209", "source": "Ministero della Salute", "website": null, "contact:phone": null, "wheelchair": null, "contact:website": null, "contact:whatsapp": null, "start_date": null, "education": null, "wikidata": null, "wikipedia": null }, "geometry": { "type": "Point", "coordinates": [ 9.1968133, 45.4628724 ] } },
{ "type": "Feature", "properties": { "id": 3, "osmid": 1529839225, "osm_type": "node", "category": "pharmacy", "addr:city": "Milano", "addr:country": "IT", "addr:housenumber": "6", "addr:postcode": "20122", "addr:street": "Via Larga", "amenity": "pharmacy", "check_date": null, "dispensing": "yes", "email": null, "healthcare": "pharmacy", "name": "Farmacia Del Duomo s.r.l.", "opening_hours": null, "operator": "Farmacia Del Duomo s.r.l.", "phone": null, "ref:msal": "2626", "ref:vatin": "IT08052330969", "source": "Ministero della Salute", "website": null, "contact:phone": "+39 02 878650", "wheelchair": null, "contact:website": null, "contact:whatsapp": null, "start_date": null, "education": null, "wikidata": null, "wikipedia": null }, "geometry": { "type": "Point", "coordinates": [ 9.1935439, 45.4625017 ] } },
{ "type": "Feature", "properties": { "id": 4, "osmid": 1678582986, "osm_type": "node", "category": "pharmacy", "addr:city": "Milano", "addr:country": null, "addr:housenumber": "1", "addr:postcode": "20123", "addr:street": "Piazza Santa Maria Beltrade", "amenity": "pharmacy", "check_date": null, "dispensing": "yes", "email": null, "healthcare": "pharmacy", "name": "Farmacia Beltrade S.R.L.", "opening_hours": null, "operator": "Farmacia Beltrade S.R.L.", "phone": null, "ref:msal": "2861", "ref:vatin": "IT10564470960", "source": "Ministero della Salute", "website": null, "contact:phone": "+39 02 86463513", "wheelchair": "no", "contact:website": null, "contact:whatsapp": null, "start_date": null, "education": null, "wikidata": null, "wikipedia": null }, "geometry": { "type": "Point", "coordinates": [ 9.1865727, 45.4627011 ] } },
{ "type": "Feature", "properties": { "id": 5, "osmid": 1678583006, "osm_type": "node", "category": "pharmacy", "addr:city": "Milano", "addr:country": null, "addr:housenumber": "13n05", "addr:postcode": "20123", "addr:street": "Via Spadari", "amenity": "pharmacy", "check_date": "2025-09-17", "dispensing": "yes", "email": null, "healthcare": "pharmacy", "name": "Farmacia Centrale S.n.c.", "opening_hours": "Mo-Fr 08:30-19:30; Sa 09:30-13:30", "operator": "Dott.ssa Maria Cristina Lugli", "phone": null, "ref:msal": "2992", "ref:vatin": "IT13261480159", "source": "Ministero della Salute", "website": null, "contact:phone": null, "wheelchair": null, "contact:website": null, "contact:whatsapp": null, "start_date": null, "education": null, "wikidata": null, "wikipedia": null }, "geometry": { "type": "Point", "coordinates": [ 9.1867044, 45.463781 ] } },
{ "type": "Feature", "properties": { "id": 6, "osmid": 1821511528, "osm_type": "node", "category": "pharmacy", "addr:city": null, "addr:country": null, "addr:housenumber": "2", "addr:postcode": "20123", "addr:street": "Via Orefici", "amenity": "pharmacy", "check_date": null, "dispensing": "yes", "email": null, "healthcare": "pharmacy", "name": "Coop.Farrn.Duomo", "opening_hours": null, "operator": "Coop.Farrn.Duomo", "phone": null, "ref:msal": "2612", "ref:vatin": "IT00774640155", "source": "Ministero della Salute", "website": null, "contact:phone": "+39 02 86460936", "wheelchair": null, "contact:website": "http://www.cofa.it/", "contact:whatsapp": null, "start_date": null, "education": null, "wikidata": null, "wikipedia": null }, "geometry": { "type": "Point", "coordinates": [ 9.1884189, 45.4641471 ] } },
{ "type": "Feature", "properties": { "id": 7, "osmid": 2066420163, "osm_type": "node", "category": "pharmacy", "addr:city": "Milano", "addr:country": "IT", "addr:housenumber": "16", "addr:postcode": "20122", "addr:street": "Via Larga", "amenity": "pharmacy", "check_date": null, "dispensing": "yes", "email": null, "healthcare": "pharmacy", "name": "Reale", "opening_hours": null, "operator": "Agape Alberto", "phone": null, "ref:msal": "2998", "ref:vatin": "IT09517590965", "source": "Ministero della Salute", "website": "http://www.farmaciarealemilano.it/", "contact:phone": null, "wheelchair": null, "contact:website": null, "contact:whatsapp": null, "start_date": null, "education": null, "wikidata": null, "wikipedia": null }, "geometry": { "type": "Point", "coordinates": [ 9.1916478, 45.4613145 ] } },
{ "type": "Feature", "properties": { "id": 8, "osmid": 3336364020, "osm_type": "node", "category": "pharmacy", "addr:city": "Milano", "addr:country": null, "addr:housenumber": "30", "addr:postcode": "20121", "addr:street": "Via Broletto", "amenity": "pharmacy", "check_date": "2025-10-01", "dispensing": "yes", "email": null, "healthcare": "pharmacy", "name": "Broletto", "opening_hours": "Mo-Sa 08:30-19:30", "operator": "Broletto", "phone": null, "ref:msal": "2807", "ref:vatin": "IT08043670960", "source": "Ministero della Salute", "website": null, "contact:phone": null, "wheelchair": null, "contact:website": null, "contact:whatsapp": null, "start_date": null, "education": null, "wikidata": null, "wikipedia": null }, "geometry": { "type": "Point", "coordinates": [ 9.1857832, 45.4676624 ] } },
{ "type": "Feature", "properties": { "id": 9, "osmid": 5350658322, "osm_type": "node", "category": "pharmacy", "addr:city": "Milano", "addr:country": "IT", "addr:housenumber": "1n06", "addr:postcode": "20121", "addr:street": "Via Broletto", "amenity": "pharmacy", "check_date": "2025-10-02", "dispensing": "yes", "email": null, "healthcare": "pharmacy", "name": "Farmacia Centro Milano srl", "opening_hours": "Mo-Fr 08:00-20:00; Sa-Su 10:00-20:00", "operator": "Farmacia Centro Milano srl", "phone": "+39 02 876457", "ref:msal": "2841", "ref:vatin": "IT06769500965", "source": "Ministero della Salute", "website": "https://www.lafarmacia.it", "contact:phone": null, "wheelchair": null, "contact:website": null, "contact:whatsapp": "+393492687725", "start_date": null, "education": null, "wikidata": null, "wikipedia": null }, "geometry": { "type": "Point", "coordinates": [ 9.1862132, 45.4658882 ] } },
{ "type": "Feature", "properties": { "id": 10, "osmid": 6534097049, "osm_type": "node", "category": "pharmacy", "addr:city": "Milano", "addr:country": "IT", "addr:housenumber": "6n04", "addr:postcode": "20123", "addr:street": "Via Santa Maria Segreta", "amenity": "pharmacy", "check_date": "2025-08-14", "dispensing": "yes", "email": null, "healthcare": "pharmacy", "name": "Farmacia Cordusio", "opening_hours": null, "operator": "Cordusio snc", "phone": "+39 02 876510", "ref:msal": "2922", "ref:vatin": "IT08741670965", "source": "Ministero della Salute", "website": "http://www.farmaciacordusio.it/", "contact:phone": null, "wheelchair": null, "contact:website": null, "contact:whatsapp": null, "start_date": null, "education": null, "wikidata": null, "wikipedia": null }, "geometry": { "type": "Point", "coordinates": [ 9.1851873, 45.4655426 ] } },
{ "type": "Feature", "properties": { "id": 11, "osmid": 10295549849, "osm_type": "node", "category": "pharmacy", "addr:city": "Milano", "addr:country": null, "addr:housenumber": "13", "addr:postcode": "20121", "addr:street": "Via San Paolo", "amenity": "pharmacy", "check_date": null, "dispensing": "yes", "email": null, "healthcare": "pharmacy", "name": "Liberty", "opening_hours": "Mo-Su 07:30-22:30; PH 07:30-22:30", "operator": "Mangini", "phone": null, "ref:msal": "2999", "ref:vatin": "IT01682210032", "source": null, "website": null, "contact:phone": "+39 02 72000419", "wheelchair": null, "contact:website": null, "contact:whatsapp": null, "start_date": "2022-12", "education": null, "wikidata": null, "wikipedia": null }, "geometry": { "type": "Point", "coordinates": [ 9.1928792, 45.466026 ] } },
{ "type": "Feature", "properties": { "id": 12, "osmid": 2391329539, "osm_type": "node", "category": "school", "addr:city": null, "addr:country": null, "addr:housenumber": "4", "addr:postcode": null, "addr:street": "Via Pietro Verri", "amenity": "school", "check_date": null, "dispensing": null, "email": null, "healthcare": null, "name": "Istituto Marangoni", "opening_hours": null, "operator": null, "phone": null, "ref:msal": null, "ref:vatin": null, "source": null, "website": null, "contact:phone": null, "wheelchair": null, "contact:website": null, "contact:whatsapp": null, "start_date": null, "education": "school", "wikidata": "Q2901181", "wikipedia": "it:Istituto Marangoni" }, "geometry": { "type": "Point", "coordinates": [ 9.1943721, 45.4675339 ] } }
]
}
