{
"type": "FeatureCollection",
"name": "pois_default",
"crs": { "type": "name", "properties": { "name": "urn:ogc:def:crs:OGC:1.3:CRS84" } },
"features": [
{ "type": "Feature", "properties": { "id": 0, "osmid": 661556413, "osm_type": "node", "category": "pharmacy" }, "geometry": { "type": "Point", "coordinates": [ 9.1882702, 45.4626069 ] } },
{ "type": "Feature", "properties": { "id": 1, "osmid": 715904515, "osm_type": "node", "category": "pharmacy" }, "geometry": { "type": "Point", "coordinates": [ 9.1893457, 45.4648556 ] } },
{ "type": "Feature", "properties": { "id": 2, "osmid": 1038653879, "osm_type": "node", "category": "pharmacy" }, "geometry": { "type": "Point", "coordinates": [ 9.1968133, 45.4628724 ] } },
{ "type": "Feature", "properties": { "id": 3, "osmid": 1529839225, "osm_type": "node", "category": "pharmacy" }, "geometry": { "type": "Point", "coordinates": [ 9.1935439, 45.4625017 ] } },
{ "type": "Feature", "properties": { "id": 4, "osmid": 1678582986, "osm_type": "node", "category": "pharmacy" }, "geometry": { "type": "Point", "coordinates": [ 9.1865727, 45.4627011 ] } },
{ "type": "Feature", "properties": { "id": 5, "osmid": 1678583006, "osm_type": "node", "category": "pharmacy" }, "geometry": { "type": "Point", "coordinates": [ 9.1867044, 45.463781 ] } },
{ "type": "Feature", "properties": { "id": 6, "osmid": 1821511528, "osm_type": "node", "category": "pharmacy" }, "geometry": { "type": "Point", "coordinates": [ 9.1884189, 45.4641471 ] } },
{ "type": "Feature", "properties": { "id": 7, "osmid": 2066420163, "osm_type": "node", "category": "pharmacy" }, "geometry": { "type": "Point", "coordinates": [ 9.1916478, 45.4613145 ] } },
{ "type": "Feature", "properties": { "id": 8, "osmid": 3336364020, "osm_type": "node", "category": "pharmacy" }, "geometry": { "type": "Point", "coordinates": [ 9.1857832, 45.4676624 ] } },
{ "type": "Feature", "properties": { "id": 9, "osmid": 5350658322, "osm_type": "node", "category": "pharmacy" }, "geometry": { "type": "Point", "coordinates": [ 9.1862132, 45.4658882 ] } },
{ "type": "Feature", "properties": { "id": 10, "osmid": 6534097049, "osm_type": "node", "category": "pharmacy" }, "geometry": { "type": "Point", "coordinates": [ 9.1851873, 45.4655426 ] } },
{ "type": "Feature", "properties": { "id": 11, "osmid": 10295549849, "osm_type": "node", "category": "pharmacy" }, "geometry": { "type": "Point", "coordinates": [ 9.1928792, 45.466026 ] } },
{ "type": "Feature", "properties": { "id": 12, "osmid": 2391329539, "osm_type": "node", "category": "school" }, "geometry": { "type": "Point", "coordinates": [ 9.1943721, 45.4675339 ] } }
]
}
